STARLINK-33548          
1 62280U 24237P   26068.40327894  .00043521  00000+0  15812-2 0  9998
2 62280  42.9960 207.1165 0000491 235.2252 124.8554 15.27590947 71272
REAL                    
1 64875U 25154G   26068.72233414  .00022901  00000+0  82904-3 0  9994
2 64875  97.4133 137.2581 0001853 118.5876 241.5550 15.28408058 34830
